FALCONSAT-6             
1 43815U 18099BK  26068.72544389  .00005029  00000+0  19477-3 0  9998
2 43815  97.3865 145.8165 0014370 297.0944 181.0714 15.26532865398556
STARLINK-35903          
1 67168U 25303F   26068.40416358  .00024688  00000+0  90352-3 0  9993
2 67168  43.0024 312.1475 0000661 283.1485  76.9293 15.27585974 12697
